OBJECT_NAME,OBJECT_ID,EPOCH,MEAN_MOTION,ECCENTRICITY,INCLINATION,RA_OF_ASC_NODE,ARG_OF_PERICENTER,MEAN_ANOMALY,EPHEMERIS_TYPE,CLASSIFICATION_TYPE,NORAD_CAT_ID,ELEMENT_SET_NO,REV_AT_EPOCH,BSTAR,MEAN_MOTION_DOT,MEAN_MOTION_DDOT
ONEWEB-0534,2023-029B,2026-06-28T19:41:26.359872,13.20771817,.00019101,87.9188,272.1508,101.8020,258.3328,0,U,55797,999,16268,.1611736E-3,.79E-6,0
ONEWEB-0556,2023-029C,2026-06-28T18:02:01.288320,13.20771569,.00012407,87.9186,272.1635,86.5627,273.5649,0,U,55798,999,16267,-.6129476E-3,-.236E-5,0
ONEWEB-0562,2023-029D,2026-06-28T19:31:44.955264,13.20771159,.00018915,87.9187,272.1321,75.3952,284.7391,0,U,55799,999,16268,-.12472757E-3,-.38E-6,0
ONEWEB-0563,2023-029E,2026-06-28T23:02:38.936832,13.20772743,.00018792,87.9185,272.1331,105.7205,254.4136,0,U,55800,999,16269,.13565957E-3,.68E-6,0
ONEWEB-0564,2023-029F,2026-06-28T22:52:58.157760,13.20772002,.00019807,87.9186,272.1081,88.6369,271.4991,0,U,55801,999,16270,-.40894237E-4,-.4E-7,0
ONEWEB-0638,2023-029G,2026-06-28T19:27:27.680256,13.14504760,.00015063,87.8960,287.4344,88.2115,271.9187,0,U,55802,999,16092,.2126856E-5,.14E-6,0
ONEWEB-0639,2023-029H,2026-06-28T20:37:25.617792,13.19725439,.00019016,87.9178,302.6507,129.9146,230.2154,0,U,55803,999,16044,-.26442374E-4,.2E-7,0
ONEWEB-0640,2023-029J,2026-06-28T19:41:09.531744,13.14500762,.00008543,87.8958,287.4234,110.7353,249.3869,0,U,55804,999,16094,.19306532E-2,.729E-5,0
ONEWEB-0641,2023-029K,2026-06-28T20:30:36.917280,13.19725215,.00019097,87.9188,302.6418,105.4956,254.6388,0,U,55805,999,16045,-.17040286E-3,-.55E-6,0
ONEWEB-0642,2023-029L,2026-06-28T20:23:48.456096,13.19720331,.00020083,87.9179,302.6537,134.4808,225.6489,0,U,55806,999,16044,.21254019E-2,.864E-5,0
ONEWEB-0643,2023-029M,2026-06-28T17:08:09.803040,13.14504165,.00022935,87.8963,287.4319,117.5157,242.6206,0,U,55807,999,16090,-.65775274E-3,-.231E-5,0
ONEWEB-0644,2023-029N,2026-06-28T20:16:58.676448,13.19725344,.0001964,87.9180,302.6558,111.0741,249.0602,0,U,55808,999,16044,.53186815E-4,.34E-6,0
ONEWEB-0645,2023-029P,2026-06-28T18:59:38.545440,13.19724906,.00015889,87.9177,302.6634,111.1417,248.9886,0,U,55809,999,16043,-.11234068E-3,-.32E-6,0
ONEWEB-0646,2023-029Q,2026-06-28T21:13:50.524320,13.19726062,.00019809,87.9178,302.6452,108.9589,251.1759,0,U,55810,999,16043,-.16967368E-3,-.55E-6,0
ONEWEB-0648,2023-029R,2026-06-28T20:01:43.172544,13.14501354,.00016254,87.8973,287.3824,129.3964,230.7310,0,U,55811,999,16092,.34061409E-3,.139E-5,0
ONEWEB-0649,2023-029S,2026-06-28T20:01:02.817696,13.19724946,.00017699,87.9179,302.6531,107.2692,252.8634,0,U,55812,999,16046,.93059036E-4,.5E-6,0
ONEWEB-0650,2023-029T,2026-06-28T21:43:23.810016,13.19726258,.00020774,87.9180,302.6413,116.7528,243.3817,0,U,55813,999,16044,.14729577E-2,.603E-5,0
ONEWEB-0652,2023-029U,2026-06-28T19:34:18.482016,13.14500840,.00020499,87.8969,287.3932,96.8705,263.2658,0,U,55814,999,16089,.68668376E-4,.38E-6,0
ONEWEB-0653,2023-029V,2026-06-28T19:11:27.327840,13.14503104,.00018806,87.8970,287.3944,99.0804,261.0539,0,U,55815,999,16092,-.7843327E-3,-.278E-5,0
ONEWEB-0654,2023-029W,2026-06-28T19:04:36.128640,13.14502002,.0002012,87.8969,287.3916,90.2319,269.9041,0,U,55816,999,16094,-.95344221E-3,-.341E-5,0
ONEWEB-0656,2023-029X,2026-06-28T22:43:14.124864,13.20774034,.00021363,87.9199,272.0868,88.2127,271.9251,0,U,55817,999,16270,-.14249832E-3,-.45E-6,0
ONEWEB-0657,2023-029Y,2026-06-28T21:36:35.532864,13.19725359,.00025911,87.9177,302.6410,95.1638,264.9790,0,U,55818,999,16045,.37044603E-4,.28E-6,0
ONEWEB-0658,2023-029Z,2026-06-28T21:29:46.101408,13.19725338,.0001976,87.9187,302.6186,112.4729,247.6613,0,U,55819,999,16046,.89344803E-4,.49E-6,0
ONEWEB-0660,2023-029AA,2026-06-28T20:22:14.792448,13.14505143,.00015752,87.8982,287.3749,105.9246,254.2058,0,U,55820,999,16093,-.11460696E-2,-.412E-5,0
ONEWEB-0661,2023-029AB,2026-06-28T19:22:53.842368,13.14503347,.00016254,87.8960,287.4262,100.7279,259.4034,0,U,55821,999,16091,-.64961283E-4,-.11E-6,0
ONEWEB-0662,2023-029AC,2026-06-28T20:13:08.001408,13.14503494,.00016162,87.8960,287.4251,105.1254,255.0054,0,U,55822,999,16096,.17616848E-3,.78E-6,0
ONEWEB-0663,2023-029AD,2026-06-28T16:14:12.170400,13.20870947,.00018055,87.9200,272.2122,111.4906,248.6420,0,U,55823,999,16266,.33435957E-3,.149E-5,0
ONEWEB-0664,2023-029AE,2026-06-28T16:56:36.431808,13.20771376,.00015957,87.9185,272.1861,91.4190,268.7126,0,U,55824,999,16266,-.1289965E-3,-.39E-6,0
ONEWEB-0665,2023-029AF,2026-06-28T19:18:19.568160,13.14503231,.00017113,87.8961,287.4076,108.5030,251.6286,0,U,55825,999,16093,-.24972383E-3,-.8E-6,0
ONEWEB-0666,2023-029AG,2026-06-28T16:46:54.015456,13.20772114,.00027197,87.9185,272.1772,96.0886,264.0558,0,U,55826,999,16267,-.20541625E-3,-.71E-6,0
