[
  {
    "name": "ONEWEB-0534",
    "noradId": "55797",
    "line1": "1 55797U 23029B   26179.82044398  .00000079  00000+0  16117-3 0  9996",
    "line2": "2 55797  87.9188 272.1508 0001910 101.8020 258.3328 13.20771817162685"
  },
  {
    "name": "ONEWEB-0556",
    "noradId": "55798",
    "line1": "1 55798U 23029C   26179.75140380 -.00000236  00000+0 -61295-3 0  9991",
    "line2": "2 55798  87.9186 272.1635 0001240  86.5627 273.5649 13.20771569162671"
  },
  {
    "name": "ONEWEB-0562",
    "noradId": "55799",
    "line1": "1 55799U 23029D   26179.81371476 -.00000038  00000+0 -12473-3 0  9995",
    "line2": "2 55799  87.9187 272.1321 0001891  75.3952 284.7391 13.20771159162688"
  },
  {
    "name": "ONEWEB-0563",
    "noradId": "55800",
    "line1": "1 55800U 23029E   26179.96017288  .00000068  00000+0  13566-3 0  9997",
    "line2": "2 55800  87.9185 272.1331 0001879 105.7205 254.4136 13.20772743162697"
  },
  {
    "name": "ONEWEB-0564",
    "noradId": "55801",
    "line1": "1 55801U 23029F   26179.95345090 -.00000004  00000+0 -40894-4 0  9999",
    "line2": "2 55801  87.9186 272.1081 0001980  88.6369 271.4991 13.20772002162702"
  },
  {
    "name": "ONEWEB-0638",
    "noradId": "55802",
    "line1": "1 55802U 23029G   26179.81073704  .00000014  00000+0  21269-5 0  9990",
    "line2": "2 55802  87.8960 287.4344 0001506  88.2115 271.9187 13.14504760160923"
  },
  {
    "name": "ONEWEB-0639",
    "noradId": "55803",
    "line1": "1 55803U 23029H   26179.85932428  .00000002  00000+0 -26442-4 0  9997",
    "line2": "2 55803  87.9178 302.6507 0001901 129.9146 230.2154 13.19725439160445"
  },
  {
    "name": "ONEWEB-0640",
    "noradId": "55804",
    "line1": "1 55804U 23029J   26179.82024921  .00000729  00000+0  19307-2 0  9990",
    "line2": "2 55804  87.8958 287.4234 0000854 110.7353 249.3869 13.14500762160946"
  },
  {
    "name": "ONEWEB-0641",
    "noradId": "55805",
    "line1": "1 55805U 23029K   26179.85459395 -.00000055  00000+0 -17040-3 0  9998",
    "line2": "2 55805  87.9188 302.6418 0001909 105.4956 254.6388 13.19725215160457"
  },
  {
    "name": "ONEWEB-0642",
    "noradId": "55806",
    "line1": "1 55806U 23029L   26179.84986639  .00000864  00000+0  21254-2 0  9991",
    "line2": "2 55806  87.9179 302.6537 0002008 134.4808 225.6489 13.19720331160442"
  },
  {
    "name": "ONEWEB-0643",
    "noradId": "55807",
    "line1": "1 55807U 23029M   26179.71400235 -.00000231  00000+0 -65775-3 0  9998",
    "line2": "2 55807  87.8963 287.4319 0002293 117.5157 242.6206 13.14504165160903"
  },
  {
    "name": "ONEWEB-0644",
    "noradId": "55808",
    "line1": "1 55808U 23029N   26179.84512357  .00000034  00000+0  53187-4 0  9996",
    "line2": "2 55808  87.9180 302.6558 0001964 111.0741 249.0602 13.19725344160442"
  },
  {
    "name": "ONEWEB-0645",
    "noradId": "55809",
    "line1": "1 55809U 23029P   26179.79141835 -.00000032  00000+0 -11234-3 0  9996",
    "line2": "2 55809  87.9177 302.6634 0001588 111.1417 248.9886 13.19724906160431"
  },
  {
    "name": "ONEWEB-0646",
    "noradId": "55810",
    "line1": "1 55810U 23029Q   26179.88461255 -.00000055  00000+0 -16967-3 0  9992",
    "line2": "2 55810  87.9178 302.6452 0001980 108.9589 251.1759 13.19726062160432"
  },
  {
    "name": "ONEWEB-0648",
    "noradId": "55811",
    "line1": "1 55811U 23029R   26179.83452746  .00000139  00000+0  34061-3 0  9999",
    "line2": "2 55811  87.8973 287.3824 0001625 129.3964 230.7310 13.14501354160927"
  },
  {
    "name": "ONEWEB-0649",
    "noradId": "55812",
    "line1": "1 55812U 23029S   26179.83406039  .00000050  00000+0  93059-4 0  9999",
    "line2": "2 55812  87.9179 302.6531 0001769 107.2692 252.8634 13.19724946160467"
  },
  {
    "name": "ONEWEB-0650",
    "noradId": "55813",
    "line1": "1 55813U 23029T   26179.90513669  .00000603  00000+0  14730-2 0  9997",
    "line2": "2 55813  87.9180 302.6413 0002077 116.7528 243.3817 13.19726258160449"
  },
  {
    "name": "ONEWEB-0652",
    "noradId": "55814",
    "line1": "1 55814U 23029U   26179.81549169  .00000038  00000+0  68668-4 0  9995",
    "line2": "2 55814  87.8969 287.3932 0002049  96.8705 263.2658 13.14500840160898"
  },
  {
    "name": "ONEWEB-0653",
    "noradId": "55815",
    "line1": "1 55815U 23029V   26179.79962185 -.00000278  00000+0 -78433-3 0  9998",
    "line2": "2 55815  87.8970 287.3944 0001880  99.0804 261.0539 13.14503104160925"
  },
  {
    "name": "ONEWEB-0654",
    "noradId": "55816",
    "line1": "1 55816U 23029W   26179.79486260 -.00000341  00000+0 -95344-3 0  9995",
    "line2": "2 55816  87.8969 287.3916 0002012  90.2319 269.9041 13.14502002160948"
  },
  {
    "name": "ONEWEB-0656",
    "noradId": "55817",
    "line1": "1 55817U 23029X   26179.94669126 -.00000045  00000+0 -14250-3 0  9995",
    "line2": "2 55817  87.9199 272.0868 0002136  88.2127 271.9251 13.20774034162708"
  },
  {
    "name": "ONEWEB-0657",
    "noradId": "55818",
    "line1": "1 55818U 23029Y   26179.90041126  .00000028  00000+0  37045-4 0  9993",
    "line2": "2 55818  87.9177 302.6410 0002591  95.1638 264.9790 13.19725359160451"
  },
  {
    "name": "ONEWEB-0658",
    "noradId": "55819",
    "line1": "1 55819U 23029Z   26179.89567247  .00000049  00000+0  89345-4 0  9992",
    "line2": "2 55819  87.9187 302.6186 0001976 112.4729 247.6613 13.19725338160463"
  },
  {
    "name": "ONEWEB-0660",
    "noradId": "55820",
    "line1": "1 55820U 23029AA  26179.84878232 -.00000412  00000+0 -11461-2 0  9996",
    "line2": "2 55820  87.8982 287.3749 0001575 105.9246 254.2058 13.14505143160931"
  },
  {
    "name": "ONEWEB-0661",
    "noradId": "55821",
    "line1": "1 55821U 23029AB  26179.80756762 -.00000011  00000+0 -64961-4 0  9996",
    "line2": "2 55821  87.8960 287.4262 0001625 100.7279 259.4034 13.14503347160917"
  },
  {
    "name": "ONEWEB-0662",
    "noradId": "55822",
    "line1": "1 55822U 23029AC  26179.84245372  .00000078  00000+0  17617-3 0  9997",
    "line2": "2 55822  87.8960 287.4251 0001616 105.1254 255.0054 13.14503494160960"
  },
  {
    "name": "ONEWEB-0663",
    "noradId": "55823",
    "line1": "1 55823U 23029AD  26179.67652975  .00000149  00000+0  33436-3 0  9996",
    "line2": "2 55823  87.9200 272.2122 0001805 111.4906 248.6420 13.20870947162663"
  },
  {
    "name": "ONEWEB-0664",
    "noradId": "55824",
    "line1": "1 55824U 23029AE  26179.70597722 -.00000039  00000+0 -12900-3 0  9992",
    "line2": "2 55824  87.9185 272.1861 0001595  91.4190 268.7126 13.20771376162665"
  },
  {
    "name": "ONEWEB-0665",
    "noradId": "55825",
    "line1": "1 55825U 23029AF  26179.80439315 -.00000080  00000+0 -24972-3 0  9995",
    "line2": "2 55825  87.8961 287.4076 0001711 108.5030 251.6286 13.14503231160939"
  },
  {
    "name": "ONEWEB-0666",
    "noradId": "55826",
    "line1": "1 55826U 23029AG  26179.69923629 -.00000071  00000+0 -20542-3 0  9998",
    "line2": "2 55826  87.9185 272.1772 0002719  96.0886 264.0558 13.20772114162670"
  }
]